NORAD_CAT_ID,OBJECT_NAME,OBJECT_TYPE,EPOCH,MEAN_MOTION,ECCENTRICITY,INCLINATION,RA_OF_ASC_NODE,ARG_OF_PERICENTER,MEAN_ANOMALY,BSTAR,MEAN_MOTION_DOT,MEAN_MOTION_DDOT,TLE_LINE0,TLE_LINE1,TLE_LINE2,SEMIMAJOR_AXIS,PERIOD,APOGEE,PERIGEE,DECAYED
52684.0,STARLINK-4014,PAYLOAD,2022-09-11 06:00:00,15.08855037,0.0001634,53.2151,109.7875,56.6982,40.2305,-0.0014151,-0.00022748,0.0,0 STARLINK-4014,1 52684U 22053AE  22254.25001157 -.00022748  00000-0 -14151-2 0  9992,2 52684  53.2151 109.7875 0001634  56.6982  40.2305 15.08855037 18208,6917.834,95.437,540.83,538.569,0.0
52684.0,STARLINK-4014,PAYLOAD,2022-09-11 14:00:01,15.08844651,0.0001539,53.2152,108.2901,63.8641,44.6671,0.0017590999999999,0.00027823,0.0,0 STARLINK-4014,1 52684U 22053AE  22254.58334491  .00027823  00000-0  17591-2 0  9996,2 52684  53.2152 108.2901 0001539  63.8641  44.6671 15.08844651  1306,6917.866,95.437,540.7959999999998,538.6669999999998,0.0
52684.0,STARLINK-4014,PAYLOAD,2022-09-11 20:00:01,15.08874586,0.000159,53.215,107.1692,57.2001,330.0373,-0.0037546,-0.00059605,0.0,0 STARLINK-4014,1 52684U 22053AE  22254.83334491 -.00059605  00000-0 -37546-2 0  9991,2 52684  53.2150 107.1692 0001590  57.2001 330.0373 15.08874586 18289,6917.775,95.435,540.74,538.54,0.0
52684.0,STARLINK-4014,PAYLOAD,2022-09-11 22:00:00,15.0885315,0.0001613,53.215,106.7954,55.987,64.1604,-0.0017269,-0.00027677,0.0,0 STARLINK-4014,1 52684U 22053AE  22254.91667824 -.00027677  00000-0 -17269-2 0  9993,2 52684  53.2150 106.7954 0001613  55.9870  64.1604 15.08853150  1301,6917.84,95.437,540.821,538.589,0.0
52684.0,STARLINK-4014,PAYLOAD,2022-09-12 12:00:00,15.08826595,0.0001492,53.2145,104.1745,63.4702,346.9701,0.00070227,0.00010902,0.0,0 STARLINK-4014,1 52684U 22053AE  22255.50001157  .00010902  00000-0  70227-3 0  9995,2 52684  53.2145 104.1745 0001492  63.4702 346.9701 15.08826595 18386,6917.920999999999,95.438,540.819,538.754,0.0
52684.0,STARLINK-4014,PAYLOAD,2022-09-12 14:00:01,15.08835457,0.0001543,53.2148,103.8006,65.1312,78.2021,-0.00020873,-3.608e-05,0.0,0 STARLINK-4014,1 52684U 22053AE  22255.58334491 -.00003608  00000-0 -20873-3 0  9992,2 52684  53.2148 103.8006 0001543  65.1312  78.2021 15.08835457  1309,6917.894,95.438,540.827,538.692,0.0
52684.0,STARLINK-4014,PAYLOAD,2022-09-12 22:00:00,15.08820112,0.0001704,53.2146,102.3059,58.0102,96.9125,0.0011364,0.00017834,0.0,0 STARLINK-4014,1 52684U 22053AE  22255.91667824  .00017834  00000-0  11364-2 0  9996,2 52684  53.2146 102.3059 0001704  58.0102  96.9125 15.08820112  1300,6917.941,95.439,540.985,538.627,0.0
52684.0,STARLINK-4014,PAYLOAD,2022-09-13 14:00:01,15.08850006,0.0001674,53.2145,99.3112,67.0973,110.9981,-0.0014173,-0.0002278,0.0,0 STARLINK-4014,1 52684U 22053AE  22256.58334491 -.00022780  00000-0 -14173-2 0  9990,2 52684  53.2145  99.3112 0001674  67.0973 110.9981 15.08850006  1308,6917.85,95.437,540.873,538.557,0.0
52684.0,STARLINK-4014,PAYLOAD,2022-09-13 16:00:00,15.0884885,0.0001691,53.2149,98.9373,65.8106,205.1859,-0.0018579,-0.00029742,0.0,0 STARLINK-4014,1 52684U 22053AE  22256.66667824 -.00029742  00000-0 -18579-2 0  9997,2 52684  53.2149  98.9373 0001691  65.8106 205.1859 15.08848850 18560,6917.853,95.437,540.888,538.549,0.0
52684.0,STARLINK-4014,PAYLOAD,2022-09-13 22:00:00,15.08814252,0.0001839,53.2145,97.8165,59.8384,129.8516,0.0016619,0.00026242,0.0,0 STARLINK-4014,1 52684U 22053AE  22256.91667824  .00026242  00000-0  16619-2 0  9998,2 52684  53.2145  97.8165 0001839  59.8384 129.8516 15.08814252  1303,6917.959,95.439,541.096,538.552,0.0
52684.0,STARLINK-4014,PAYLOAD,2022-09-14 14:00:01,15.08844824,0.0001737,53.2166,94.8206,65.2051,147.6363,-0.00071365,-0.00011629,0.0,0 STARLINK-4014,1 52684U 22053AE  22257.58334491 -.00011629  00000-0 -71365-3 0  9998,2 52684  53.2166  94.8206 0001737  65.2051 147.6363 15.08844824 18706,6917.866,95.437,540.932,538.529,0.0
52684.0,STARLINK-4014,PAYLOAD,2022-09-14 22:00:00,15.08830787,0.0001905,53.2148,93.327,59.0788,165.3669,0.0020618,0.0003266999999999,0.0,0 STARLINK-4014,1 52684U 22053AE  22257.91667824  .00032670  00000-0  20618-2 0  9995,2 52684  53.2148  93.3270 0001905  59.0788 165.3669 15.08830787  1303,6917.909000000002,95.438,541.091,538.456,0.0
52684.0,STARLINK-4014,PAYLOAD,2022-09-15 06:00:00,15.08871834,0.0001736,53.215,91.8292,60.4837,175.5605,-0.0036546,-0.00058034,0.0,0 STARLINK-4014,1 52684U 22053AE  22258.25001157 -.00058034  00000-0 -36546-2 0  9995,2 52684  53.2150  91.8292 0001736  60.4837 175.5605 15.08871834 18800,6917.783,95.436,540.849,538.447,0.0
52684.0,STARLINK-4014,PAYLOAD,2022-09-15 14:00:01,15.08843199,0.0001725,53.2153,90.3324,64.3851,183.2605,0.00047825,7.332e-05,0.0,0 STARLINK-4014,1 52684U 22053AE  22258.58334491  .00007332  00000-0  47825-3 0  9997,2 52684  53.2153  90.3324 0001725  64.3851 183.2605 15.08843199  1306,6917.871,95.437,540.929,538.5419999999998,0.0
52684.0,STARLINK-4014,PAYLOAD,2022-09-15 19:15:58,15.08838065,0.0001671,53.2172,89.3488,50.4683,309.6456,0.0001020999999999,1.337e-05,0.0,0 STARLINK-4014,1 52684U 22053AE  22258.80275790  .00001337  00000-0  10210-3 0  9995,2 52684  53.2172  89.3488 0001671  50.4683 309.6456 15.08838065 18880,6917.886,95.438,540.9069999999998,538.595,0.0
52684.0,STARLINK-4014,PAYLOAD,2022-09-16 12:45:13,15.08833401,0.0001584,53.2175,86.0781,53.3457,306.7681,-5.5295e-05,-1.168e-05,0.0,0 STARLINK-4014,1 52684U 22053AE  22259.53140489 -.00001168  00000-0 -55295-4 0  9999,2 52684  53.2175  86.0781 0001584  53.3457 306.7681 15.08833401 18996,6917.901,95.438,540.861,538.67,0.0
52684.0,STARLINK-4014,PAYLOAD,2022-09-16 19:06:45,15.08834529,0.0001738,53.2165,84.8883,58.4564,301.6597,-2.973e-05,-7.61e-06,0.0,0 STARLINK-4014,1 52684U 22053AE  22259.79636433 -.00000761  00000-0 -29730-4 0  9999,2 52684  53.2165  84.8883 0001738  58.4564 301.6597 15.08834529 19421,6917.897,95.438,540.964,538.56,0.0
52684.0,STARLINK-4014,PAYLOAD,2022-09-17 07:49:50,15.08842632,0.0001799,53.2162,82.5088,58.6708,301.446,-2.9613000000000013e-05,-7.59e-06,0.0,0 STARLINK-4014,1 52684U 22053AE  22260.32627869 -.00000759  00000-0 -29613-4 0  9990,2 52684  53.2162  82.5088 0001799  58.6708 301.4460 15.08842632 19116,6917.871999999999,95.437,540.982,538.493,0.0
52684.0,STARLINK-4014,PAYLOAD,2022-09-17 12:36:00,15.08836876,0.0001854,53.2161,81.6164,53.5112,306.6051,-3.5626e-05,-8.55e-06,0.0,0 STARLINK-4014,1 52684U 22053AE  22260.52500239 -.00000855  00000-0 -35626-4 0  9991,2 52684  53.2161  81.6164 0001854  53.5112 306.6051 15.08836876 19537,6917.89,95.438,541.038,538.472,0.0
52684.0,STARLINK-4014,PAYLOAD,2022-09-17 18:57:33,15.08830414,0.000167,53.2169,80.4273,56.4285,303.6867,-8.2129e-05,-1.595e-05,0.0,0 STARLINK-4014,1 52684U 22053AE  22260.78996847 -.00001595  00000-0 -82129-4 0  9995,2 52684  53.2169  80.4273 0001670  56.4285 303.6867 15.08830414 19187,6917.91,95.438,540.93,538.619,0.0
52684.0,STARLINK-4014,PAYLOAD,2022-09-18 12:26:47,15.08824863,0.0001635,53.217,77.1564,54.049,306.0654,0.00014061,1.95e-05,0.0,0 STARLINK-4014,1 52684U 22053AE  22261.51860782  .00001950  00000-0  14061-3 0  9997,2 52684  53.2170  77.1564 0001635  54.0490 306.0654 15.08824863 19685,6917.927,95.439,540.923,538.661,0.0
52684.0,STARLINK-4014,PAYLOAD,2022-09-18 18:48:20,15.08833641,0.0001631999999999,53.2169,75.9666,53.3321,306.7821,8.7501e-05,1.105e-05,0.0,0 STARLINK-4014,1 52684U 22053AE  22261.78356569  .00001105  00000-0  87501-4 0  9991,2 52684  53.2169  75.9666 0001632  53.3321 306.7821 15.08833641 19726,6917.9,95.438,540.894,538.636,0.0
52684.0,STARLINK-4014,PAYLOAD,2022-09-19 04:20:38,15.08842102,0.0001593,53.2171,74.1819,54.2626,305.8514,7.1096e-05,8.44e-06,0.0,0 STARLINK-4014,1 52684U 22053AE  22262.18100133  .00000844  00000-0  71096-4 0  9991,2 52684  53.2171  74.1819 0001593  54.2626 305.8514 15.08842102 19398,6917.874,95.437,540.841,538.637,0.0
52684.0,STARLINK-4014,PAYLOAD,2022-09-19 12:17:34,15.08831142,0.0001569,53.2172,72.6952,57.1013,303.013,3.461e-05,2.63e-06,0.0,0 STARLINK-4014,1 52684U 22053AE  22262.51220982  .00000263  00000-0  34610-4 0  9999,2 52684  53.2172  72.6952 0001569  57.1013 303.0130 15.08831142 19830,6917.906999999997,95.438,540.8580000000002,538.687,0.0
52684.0,STARLINK-4014,PAYLOAD,2022-09-19 13:52:58,15.08830708,0.0001582,53.2171,72.3977,56.4074,303.7069,2.9609e-05,1.83e-06,0.0,0 STARLINK-4014,1 52684U 22053AE  22262.57845061  .00000183  00000-0  29609-4 0  9999,2 52684  53.2171  72.3977 0001582  56.4074 303.7069 15.08830708 19450,6917.909000000002,95.438,540.868,538.679,0.0
52684.0,STARLINK-4014,PAYLOAD,2022-09-20 10:32:58,15.08838087,0.0001607,53.2172,68.532,57.242,302.8726,4.926e-05,4.96e-06,0.0,0 STARLINK-4014,1 52684U 22053AE  22263.43956941  .00000496  00000-0  49260-4 0  9997,2 52684  53.2172  68.5320 0001607  57.2420 302.8726 15.08838087 19977,6917.886,95.438,540.863,538.64,0.0
52684.0,STARLINK-4014,PAYLOAD,2022-09-20 13:43:44,15.08841327,0.000162,53.2172,67.9375,57.9581,302.1569,7.3044e-05,8.75e-06,0.0,0 STARLINK-4014,1 52684U 22053AE  22263.57204654  .00000875  00000-0  73044-4 0  9997,2 52684  53.2172  67.9375 0001620  57.9581 302.1569 15.08841327 19991,6917.876,95.437,540.862,538.621,0.0
52684.0,STARLINK-4014,PAYLOAD,2022-09-21 13:34:32,15.08835675,0.0001735,53.217,63.477,59.5103,300.606,2.777e-05,1.54e-06,0.0,0 STARLINK-4014,1 52684U 22053AE  22264.56565321  .00000154  00000-0  27770-4 0  9993,2 52684  53.2170  63.4770 0001735  59.5103 300.6060 15.08835675 19756,6917.894,95.438,540.9590000000002,538.558,0.0
52684.0,STARLINK-4014,PAYLOAD,2022-09-22 03:53:00,15.08843466,0.0001794,53.2169,60.8001,63.4964,296.6212,6.7275e-05,7.83e-06,0.0,0 STARLINK-4014,1 52684U 22053AE  22265.16180778  .00000783  00000-0  67275-4 0  9991,2 52684  53.2169  60.8001 0001794  63.4964 296.6212 15.08843466 19846,6917.87,95.437,540.976,538.494,0.0
